[{"OBJECT_NAME":"STARLINK-6299","OBJECT_ID":"2023-099AG","EPOCH":"2026-01-27T12:52:33.172320","MEAN_MOTION":15.02539556,"ECCENTRICITY":0.0001036,"INCLINATION":43.0045,"RA_OF_ASC_NODE":99.7638,"ARG_OF_PERICENTER":265.242,"MEAN_ANOMALY":94.8304,"EPHEMERIS_TYPE":0,"CLASSIFICATION_TYPE":"U","NORAD_CAT_ID":57358,"ELEMENT_SET_NO":999,"REV_AT_EPOCH":14081,"BSTAR":0.00010851,"MEAN_MOTION_DOT":1.263e-5,"MEAN_MOTION_DDOT":0},{"OBJECT_NAME":"STARLINK-6347","OBJECT_ID":"2023-099AH","EPOCH":"2026-01-26T14:56:20.280480","MEAN_MOTION":15.02537451,"ECCENTRICITY":0.0001241,"INCLINATION":43.0019,"RA_OF_ASC_NODE":104.9498,"ARG_OF_PERICENTER":246.7544,"MEAN_ANOMALY":113.3168,"EPHEMERIS_TYPE":0,"CLASSIFICATION_TYPE":"U","NORAD_CAT_ID":57359,"ELEMENT_SET_NO":999,"REV_AT_EPOCH":13993,"BSTAR":1.745e-5,"MEAN_MOTION_DOT":3.2e-7,"MEAN_MOTION_DDOT":0},{"OBJECT_NAME":"STARLINK-6348","OBJECT_ID":"2023-099AJ","EPOCH":"2026-01-27T14:18:41.438880","MEAN_MOTION":15.02541866,"ECCENTRICITY":0.0001016,"INCLINATION":43.0043,"RA_OF_ASC_NODE":99.3553,"ARG_OF_PERICENTER":270.9878,"MEAN_ANOMALY":89.0848,"EPHEMERIS_TYPE":0,"CLASSIFICATION_TYPE":"U","NORAD_CAT_ID":57360,"ELEMENT_SET_NO":999,"REV_AT_EPOCH":14008,"BSTAR":8.4183e-6,"MEAN_MOTION_DOT":-9.0e-7,"MEAN_MOTION_DDOT":0},{"OBJECT_NAME":"STARLINK-6340","OBJECT_ID":"2023-099AK","EPOCH":"2026-01-27T11:20:01.595616","MEAN_MOTION":15.02528504,"ECCENTRICITY":0.00013478,"INCLINATION":43.0019,"RA_OF_ASC_NODE":100.1477,"ARG_OF_PERICENTER":279.4353,"MEAN_ANOMALY":80.6337,"EPHEMERIS_TYPE":0,"CLASSIFICATION_TYPE":"U","NORAD_CAT_ID":57361,"ELEMENT_SET_NO":999,"REV_AT_EPOCH":14006,"BSTAR":0.00018279352,"MEAN_MOTION_DOT":2.266e-5,"MEAN_MOTION_DDOT":0},{"OBJECT_NAME":"STARLINK-6343","OBJECT_ID":"2023-099AL","EPOCH":"2026-01-27T12:38:10.196160","MEAN_MOTION":15.02534746,"ECCENTRICITY":0.0001162,"INCLINATION":43.0035,"RA_OF_ASC_NODE":99.691,"ARG_OF_PERICENTER":282.5061,"MEAN_ANOMALY":77.5651,"EPHEMERIS_TYPE":0,"CLASSIFICATION_TYPE":"U","NORAD_CAT_ID":57362,"ELEMENT_SET_NO":999,"REV_AT_EPOCH":14007,"BSTAR":5.2104e-5,"MEAN_MOTION_DOT":5.0e-6,"MEAN_MOTION_DDOT":0},{"OBJECT_NAME":"STARLINK-6356","OBJECT_ID":"2023-099AM","EPOCH":"2026-01-27T14:23:29.152608","MEAN_MOTION":15.02533785,"ECCENTRICITY":0.0001135,"INCLINATION":43.0034,"RA_OF_ASC_NODE":99.3812,"ARG_OF_PERICENTER":271.1052,"MEAN_ANOMALY":88.966,"EPHEMERIS_TYPE":0,"CLASSIFICATION_TYPE":"U","NORAD_CAT_ID":57363,"ELEMENT_SET_NO":999,"REV_AT_EPOCH":14008,"BSTAR":3.9318e-5,"MEAN_MOTION_DOT":3.28e-6,"MEAN_MOTION_DDOT":0},{"OBJECT_NAME":"STARLINK-6338","OBJECT_ID":"2023-099AN","EPOCH":"2026-01-27T14:12:17.554176","MEAN_MOTION":15.02542315,"ECCENTRICITY":0.0001471,"INCLINATION":43.0055,"RA_OF_ASC_NODE":99.3207,"ARG_OF_PERICENTER":276.6464,"MEAN_ANOMALY":83.4211,"EPHEMERIS_TYPE":0,"CLASSIFICATION_TYPE":"U","NORAD_CAT_ID":57364,"ELEMENT_SET_NO":999,"REV_AT_EPOCH":14008,"BSTAR":-0.00013664,"MEAN_MOTION_DOT":-2.049e-5,"MEAN_MOTION_DDOT":0},{"OBJECT_NAME":"STARLINK-5007","OBJECT_ID":"2023-099AP","EPOCH":"2026-01-27T13:57:54.516672","MEAN_MOTION":15.02542552,"ECCENTRICITY":0.0001153,"INCLINATION":43.0051,"RA_OF_ASC_NODE":99.2407,"ARG_OF_PERICENTER":269.9176,"MEAN_ANOMALY":90.1534,"EPHEMERIS_TYPE":0,"CLASSIFICATION_TYPE":"U","NORAD_CAT_ID":57365,"ELEMENT_SET_NO":999,"REV_AT_EPOCH":14008,"BSTAR":1.3332e-5,"MEAN_MOTION_DOT":-2.4e-7,"MEAN_MOTION_DDOT":0},{"OBJECT_NAME":"STARLINK-6174","OBJECT_ID":"2023-099AQ","EPOCH":"2026-01-27T14:02:43.158336","MEAN_MOTION":15.02535161,"ECCENTRICITY":0.0001104,"INCLINATION":43.0017,"RA_OF_ASC_NODE":99.2708,"ARG_OF_PERICENTER":273.8508,"MEAN_ANOMALY":86.2208,"EPHEMERIS_TYPE":0,"CLASSIFICATION_TYPE":"U","NORAD_CAT_ID":57366,"ELEMENT_SET_NO":999,"REV_AT_EPOCH":14008,"BSTAR":0.00013245,"MEAN_MOTION_DOT":1.586e-5,"MEAN_MOTION_DDOT":0},{"OBJECT_NAME":"STARLINK-6215","OBJECT_ID":"2023-099AR","EPOCH":"2026-01-26T13:57:34.070976","MEAN_MOTION":15.02536443,"ECCENTRICITY":0.0001729,"INCLINATION":43.0008,"RA_OF_ASC_NODE":91.6076,"ARG_OF_PERICENTER":264.2574,"MEAN_ANOMALY":95.8072,"EPHEMERIS_TYPE":0,"CLASSIFICATION_TYPE":"U","NORAD_CAT_ID":57367,"ELEMENT_SET_NO":999,"REV_AT_EPOCH":14083,"BSTAR":0.00011767,"MEAN_MOTION_DOT":1.386e-5,"MEAN_MOTION_DDOT":0},{"OBJECT_NAME":"STARLINK-6218","OBJECT_ID":"2023-099AS","EPOCH":"2026-01-27T13:54:43.035264","MEAN_MOTION":15.02534405,"ECCENTRICITY":0.0001325,"INCLINATION":43.0054,"RA_OF_ASC_NODE":99.2235,"ARG_OF_PERICENTER":270.611,"MEAN_ANOMALY":89.458,"EPHEMERIS_TYPE":0,"CLASSIFICATION_TYPE":"U","NORAD_CAT_ID":57368,"ELEMENT_SET_NO":999,"REV_AT_EPOCH":14008,"BSTAR":0.00016557,"MEAN_MOTION_DOT":2.033e-5,"MEAN_MOTION_DDOT":0},{"OBJECT_NAME":"STARLINK-6168","OBJECT_ID":"2023-099AT","EPOCH":"2026-01-27T14:07:30.540288","MEAN_MOTION":15.02532489,"ECCENTRICITY":0.0001155,"INCLINATION":43.0024,"RA_OF_ASC_NODE":99.2967,"ARG_OF_PERICENTER":262.7062,"MEAN_ANOMALY":97.365,"EPHEMERIS_TYPE":0,"CLASSIFICATION_TYPE":"U","NORAD_CAT_ID":57369,"ELEMENT_SET_NO":999,"REV_AT_EPOCH":14008,"BSTAR":2.443e-5,"MEAN_MOTION_DOT":1.26e-6,"MEAN_MOTION_DDOT":0},{"OBJECT_NAME":"STARLINK-5353","OBJECT_ID":"2023-099AU","EPOCH":"2026-01-27T13:45:07.751232","MEAN_MOTION":15.02536212,"ECCENTRICITY":0.0001134,"INCLINATION":43.0026,"RA_OF_ASC_NODE":99.174,"ARG_OF_PERICENTER":265.1785,"MEAN_ANOMALY":94.8928,"EPHEMERIS_TYPE":0,"CLASSIFICATION_TYPE":"U","NORAD_CAT_ID":57370,"ELEMENT_SET_NO":999,"REV_AT_EPOCH":14008,"BSTAR":3.1342e-5,"MEAN_MOTION_DOT":2.2e-6,"MEAN_MOTION_DDOT":0},{"OBJECT_NAME":"STARLINK-6032","OBJECT_ID":"2023-099AV","EPOCH":"2026-01-27T14:04:18.134400","MEAN_MOTION":15.02541088,"ECCENTRICITY":0.0001086,"INCLINATION":43.0049,"RA_OF_ASC_NODE":99.2775,"ARG_OF_PERICENTER":275.6931,"MEAN_ANOMALY":84.3787,"EPHEMERIS_TYPE":0,"CLASSIFICATION_TYPE":"U","NORAD_CAT_ID":57371,"ELEMENT_SET_NO":999,"REV_AT_EPOCH":14008,"BSTAR":1.0143e-6,"MEAN_MOTION_DOT":-1.9e-6,"MEAN_MOTION_DDOT":0},{"OBJECT_NAME":"STARLINK-5975","OBJECT_ID":"2023-099AW","EPOCH":"2026-01-27T13:33:56.138112","MEAN_MOTION":15.02536348,"ECCENTRICITY":0.0001055,"INCLINATION":43.0018,"RA_OF_ASC_NODE":99.1087,"ARG_OF_PERICENTER":265.8323,"MEAN_ANOMALY":94.2398,"EPHEMERIS_TYPE":0,"CLASSIFICATION_TYPE":"U","NORAD_CAT_ID":57372,"ELEMENT_SET_NO":999,"REV_AT_EPOCH":14008,"BSTAR":7.8023e-5,"MEAN_MOTION_DOT":8.51e-6,"MEAN_MOTION_DDOT":0},{"OBJECT_NAME":"STARLINK-6370","OBJECT_ID":"2023-099AX","EPOCH":"2026-01-27T13:18:08.134848","MEAN_MOTION":15.02530658,"ECCENTRICITY":0.0001072,"INCLINATION":43.001,"RA_OF_ASC_NODE":99.8902,"ARG_OF_PERICENTER":289.0201,"MEAN_ANOMALY":71.0525,"EPHEMERIS_TYPE":0,"CLASSIFICATION_TYPE":"U","NORAD_CAT_ID":57373,"ELEMENT_SET_NO":999,"REV_AT_EPOCH":14007,"BSTAR":-0.00015617,"MEAN_MOTION_DOT":-2.312e-5,"MEAN_MOTION_DDOT":0},{"OBJECT_NAME":"STARLINK-6369","OBJECT_ID":"2023-099AY","EPOCH":"2026-01-27T12:35:20.619744","MEAN_MOTION":15.0253666,"ECCENTRICITY":0.0001171,"INCLINATION":43.004,"RA_OF_ASC_NODE":86.6631,"ARG_OF_PERICENTER":268.573,"MEAN_ANOMALY":91.4979,"EPHEMERIS_TYPE":0,"CLASSIFICATION_TYPE":"U","NORAD_CAT_ID":57374,"ELEMENT_SET_NO":999,"REV_AT_EPOCH":14022,"BSTAR":8.4832e-5,"MEAN_MOTION_DOT":9.43e-6,"MEAN_MOTION_DDOT":0},{"OBJECT_NAME":"STARLINK-6363","OBJECT_ID":"2023-099AZ","EPOCH":"2026-01-27T13:43:31.799712","MEAN_MOTION":15.02537895,"ECCENTRICITY":0.0001266,"INCLINATION":43.0015,"RA_OF_ASC_NODE":99.1664,"ARG_OF_PERICENTER":264.0724,"MEAN_ANOMALY":95.9974,"EPHEMERIS_TYPE":0,"CLASSIFICATION_TYPE":"U","NORAD_CAT_ID":57375,"ELEMENT_SET_NO":999,"REV_AT_EPOCH":14008,"BSTAR":3.9298e-5,"MEAN_MOTION_DOT":3.27e-6,"MEAN_MOTION_DDOT":0},{"OBJECT_NAME":"STARLINK-6367","OBJECT_ID":"2023-099BA","EPOCH":"2026-01-27T13:29:08.344896","MEAN_MOTION":15.02547973,"ECCENTRICITY":0.0001748,"INCLINATION":43.0025,"RA_OF_ASC_NODE":99.0928,"ARG_OF_PERICENTER":265.319,"MEAN_ANOMALY":94.7452,"EPHEMERIS_TYPE":0,"CLASSIFICATION_TYPE":"U","NORAD_CAT_ID":57376,"ELEMENT_SET_NO":999,"REV_AT_EPOCH":14008,"BSTAR":0.00081021,"MEAN_MOTION_DOT":0.00010761,"MEAN_MOTION_DDOT":0},{"OBJECT_NAME":"STARLINK-6358","OBJECT_ID":"2023-099BB","EPOCH":"2026-01-27T13:35:31.814880","MEAN_MOTION":15.02537981,"ECCENTRICITY":0.0001476,"INCLINATION":43.0026,"RA_OF_ASC_NODE":99.1279,"ARG_OF_PERICENTER":257.8501,"MEAN_ANOMALY":102.2176,"EPHEMERIS_TYPE":0,"CLASSIFICATION_TYPE":"U","NORAD_CAT_ID":57377,"ELEMENT_SET_NO":999,"REV_AT_EPOCH":14008,"BSTAR":-8.1791e-5,"MEAN_MOTION_DOT":-1.308e-5,"MEAN_MOTION_DDOT":0},{"OBJECT_NAME":"STARLINK-6364","OBJECT_ID":"2023-099BC","EPOCH":"2026-01-27T12:29:19.268160","MEAN_MOTION":15.02537146,"ECCENTRICITY":9.38e-5,"INCLINATION":43.0044,"RA_OF_ASC_NODE":73.6274,"ARG_OF_PERICENTER":271.6605,"MEAN_ANOMALY":88.413,"EPHEMERIS_TYPE":0,"CLASSIFICATION_TYPE":"U","NORAD_CAT_ID":57378,"ELEMENT_SET_NO":999,"REV_AT_EPOCH":14111,"BSTAR":-5.524e-5,"MEAN_MOTION_DOT":-9.5e-6,"MEAN_MOTION_DDOT":0},{"OBJECT_NAME":"STARLINK-6361","OBJECT_ID":"2023-099BD","EPOCH":"2026-01-27T13:30:44.358624","MEAN_MOTION":15.0253746,"ECCENTRICITY":0.0001395,"INCLINATION":43.0034,"RA_OF_ASC_NODE":99.1017,"ARG_OF_PERICENTER":285.2771,"MEAN_ANOMALY":74.7917,"EPHEMERIS_TYPE":0,"CLASSIFICATION_TYPE":"U","NORAD_CAT_ID":57379,"ELEMENT_SET_NO":999,"REV_AT_EPOCH":14008,"BSTAR":8.7913e-5,"MEAN_MOTION_DOT":9.84e-6,"MEAN_MOTION_DDOT":0},{"OBJECT_NAME":"STARLINK-6366","OBJECT_ID":"2023-099BE","EPOCH":"2026-01-27T12:27:42.943392","MEAN_MOTION":15.02536732,"ECCENTRICITY":0.0001432,"INCLINATION":43.0035,"RA_OF_ASC_NODE":73.6101,"ARG_OF_PERICENTER":261.3137,"MEAN_ANOMALY":98.7543,"EPHEMERIS_TYPE":0,"CLASSIFICATION_TYPE":"U","NORAD_CAT_ID":57380,"ELEMENT_SET_NO":999,"REV_AT_EPOCH":14110,"BSTAR":5.4808e-5,"MEAN_MOTION_DOT":5.37e-6,"MEAN_MOTION_DDOT":0}]
